{
  "type": "FeatureCollection",
  "features": [
    {"type":"Feature","properties":{"name":"North America"},"geometry":{"type":"Polygon","coordinates":[[[-168,72],[-145,70],[-130,58],[-122,49],[-105,48],[-95,30],[-82,25],[-80,10],[-100,15],[-115,25],[-130,32],[-145,45],[-160,55],[-168,72]]]}},
    {"type":"Feature","properties":{"name":"South America"},"geometry":{"type":"Polygon","coordinates":[[[-81,12],[-65,10],[-52,5],[-35,-5],[-42,-20],[-50,-32],[-58,-48],[-70,-55],[-75,-35],[-80,-15],[-81,12]]]}},
    {"type":"Feature","properties":{"name":"Europe Asia"},"geometry":{"type":"Polygon","coordinates":[[[-12,35],[-5,44],[10,52],[25,70],[55,72],[85,70],[115,62],[145,55],[170,48],[165,35],[140,25],[120,18],[105,8],[90,15],[75,8],[58,20],[45,30],[30,36],[18,34],[8,40],[-2,35],[-12,35]]]}},
    {"type":"Feature","properties":{"name":"Africa"},"geometry":{"type":"Polygon","coordinates":[[[-17,35],[-5,37],[12,32],[28,30],[40,15],[50,5],[44,-12],[32,-28],[18,-35],[5,-30],[-5,-12],[-14,8],[-17,35]]]}},
    {"type":"Feature","properties":{"name":"Australia"},"geometry":{"type":"Polygon","coordinates":[[112,-10],[130,-12],[150,-20],[154,-35],[140,-42],[120,-38],[112,-25],[112,-10]]]}},
    {"type":"Feature","properties":{"name":"Greenland"},"geometry":{"type":"Polygon","coordinates":[[[-54,82],[-20,80],[-18,65],[-40,60],[-58,68],[-54,82]]]}}
  ]
}
