{"type":"FeatureCollection","features":[{"type":"Feature","id":"africa-continent","properties":{"id":"africa-continent","name":"Afrique"},"geometry":{"type":"MultiPolygon","coordinates":[[[[-12.493,7.568],[-12.5196,7.4041],[-12.5497,7.3896],[-12.6055,7.4787],[-12.9517,7.5754],[-12.8833,7.6164],[-12.6007,7.6382],[-12.493,7.568]]],[[[-16.0762,11.0361],[-16.132,11.029],[-16.132,11.0637],[-16.145,11.029],[-16.1885,11.0396],[-16.248,11.1047],[-16.08,11.2062],[-16.0489,11.1183],[-16.0762,11.0361]]],[[[-15.8776,11.0736],[-15.9812,11.0529],[-15.9259,11.0904],[-15.9669,11.0978],[-15.9464,11.2003],[-15.8776,11.0736]]],[[[-16.0171,11.0687],[-16.0221,11.1388],[-16.057,11.1636],[-15.9812,11.2071],[-15.9745,11.1162],[-16.0171,11.0687]]],[[[-15.6932,11.2555],[-15.7268,11.1661],[-15.7733,11.1731],[-15.754,11.2759],[-15.6584,11.3027],[-15.6584,11.2338],[-15.6932,11.2555]]],[[[-15.8961,11.2182],[-15.8808,11.2806],[-15.8312,11.303],[-15.8465,11.201],[-15.8961,11.2182]]],[[[-16.2828,11.2307],[-16.2065,11.3101],[-16.1515,11.2762],[-16.173,11.2208],[-16.2515,11.2177],[-16.2828,11.2307]]],[[[-15.6653,11.5087],[-15.6796,11.4404],[-15.7404,11.4604],[-15.6653,11.5087]]],[[[-16.3021,11.4535],[-16.1831,11.5185],[-16.1606,11.5056],[-16.214,11.4404],[-16.3021,11.4535]]],[[[-15.9396,11.6049],[-15.9061,11.5784],[-15.898,11.4535],[-16.0352,11.42],[-16.0836,11.4678],[-15.9396,11.6049]]],[[[-16.2755,11.4955],[-16.4194,11.4882],[-16.4263,11.5292],[-16.248,11.5838],[-16.2755,11.4955]]],[[[-15.4908,11.5634],[-15.5697,11.5497],[-15.5663,11.5105],[-15.633,11.5382],[-15.5287,11.6248],[-15.4735,11.6323],[-15.4908,11.5634]]],[[[-15.0852,10.9276],[-15.0483,10.9948],[-15.114,10.9752],[-15.0994,11.0577],[-15.0421,11.1388],[-15.0006,11.1422],[-15.021,11.1661],[-15.0009,11.2168],[-15.1246,11.132],[-15.2301,10.9948],[-15.2711,11.0392],[-15.2145,11.0814],[-15.2066,11.2338],[-15.235,11.2156],[-15.2335,11.1225],[-15.3582,11.1442],[-15.4095,11.1896],[-15.4261,11.2865],[-15.3886,11.3699],[-15.3297,11.3685],[-15.2681,11.433],[-15.3431,11.3784],[-15.3617,11.3991],[-15.331,11.4626],[-15.3534,11.4633],[-15.4495,11.3471],[-15.4943,11.3339],[-15.5071,11.3579],[-15.453,11.4604],[-15.4735,11.4945],[-15.3978,11.4945],[-15.412,11.5292],[-15.3544,11.5251],[-15.35,11.5634],[-15.2899,11.5428],[-15.3363,11.577],[-15.2947,11.6049],[-15.2748,11.5781],[-15.2401,11.577],[-15.2811,11.6248],[-15.2265,11.6186],[-15.2091,11.574],[-15.1944,11.6428],[-15.1484,11.6288],[-15.144,11.5981],[-15.1159,11.6177],[-15.0899,11.5913],[-15.144,11.5838],[-15.1233,11.5455],[-15.0073,11.6118],[-15.0799,11.598],[-15.062,11.6459],[-15.0899,11.6186],[-15.1246,11.6385],[-15.1103,11.6868],[-15.1308,11.6527],[-15.1719,11.6596],[-15.1308,11.708],[-15.228,11.6586],[-15.2128,11.7279],[-15.1861,11.7216],[-15.2265,11.7551],[-15.2593,11.6768],[-15.2681,11.7484],[-15.3226,11.708],[-15.2811,11.6698],[-15.3226,11.6323],[-15.35,11.6801],[-15.3431,11.6049],[-15.3916,11.6596],[-15.3711,11.5913],[-15.4189,11.6118],[-15.4387,11.5571],[-15.4689,11.6058],[-15.4263,11.6937],[-15.4761,11.6544],[-15.4878,11.708],[-15.5381,11.6762],[-15.5514,11.7331],[-15.4387,11.8854],[-15.1892,11.8712],[-15.0899,11.9401],[-15.0629,11.925],[-15.0871,11.8703],[-15.0694,11.8036],[-14.9359,11.753],[-15.0702,11.8607],[-14.9938,11.9572],[-15.0072,11.9783],[-15.0939,11.9837],[-15.2151,11.9096],[-15.4263,11.9612],[-15.4974,11.937],[-15.5933,11.8445],[-15.8304,11.7484],[-15.7915,11.8632],[-15.7342,11.8581],[-15.7956,11.8854],[-15.8502,11.7753],[-15.88,11.7744],[-15.8776,11.824],[-15.9055,11.7619],[-15.959,11.7348],[-15.932,11.8796],[-15.8653,11.9722],[-15.7995,12.0034],[-15.7205,11.9674],[-15.7137,12.0158],[-15.7615,11.9953],[-15.8639,12.0295],[-15.9464,11.9836],[-15.9679,11.927],[-16.1246,11.8854],[-16.243,11.9254],[-16.2754,11.9811],[-16.3232,11.9953],[-16.3551,12.0873],[-16.3196,12.1717],[-16.2611,12.1803],[-16.2574,12.2302],[-16.0631,12.351],[-16.2276,12.2827],[-16.3058,12.2144],[-16.3164,12.2827],[-16.3502,12.1972],[-16.4058,12.2077],[-16.4576,12.1719],[-16.6615,12.3323],[-16.7211,12.3237],[-16.803,12.4438],[-16.7814,12.5229],[-16.6788,12.5502],[-16.5797,12.6328],[-16.5333,12.5653],[-16.5048,12.598],[-16.371,12.5502],[-16.3096,12.598],[-16.2122,12.6064],[-16.1929,12.5776],[-16.0298,12.633],[-15.84,12.5571],[-15.7296,12.5915],[-15.6334,12.5395],[-15.5098,12.6358],[-15.5349,12.783],[-15.4462,12.8246],[-15.394,12.8102],[-15.3916,12.8382],[-15.4071,12.8223],[-15.453,12.8314],[-15.5495,12.7943],[-15.5425,12.6494],[-15.641,12.5595],[-15.6721,12.5707],[-15.6664,12.6007],[-15.7677,12.6254],[-15.8335,12.5913],[-15.9133,12.6012],[-16.0221,12.729],[-16.0768,12.639],[-16.3238,12.6096],[-16.371,12.5645],[-16.4896,12.6318],[-16.4672,12.6738],[-16.5013,12.7079],[-16.5082,12.6254],[-16.5702,12.6936],[-16.6347,12.6694],[-16.5907,12.762],[-16.5969,12.7973],[-16.651,12.7053],[-16.6472,12.6322],[-16.7546,12.5722],[-16.7771,12.678],[-16.699,12.7364],[-16.734,12.7514],[-16.7962,12.7153],[-16.7701,12.7934],[-16.803,12.814],[-16.7552,12.9035],[-16.7478,13.0403],[-16.7867,13.0901],[-16.8297,13.3385],[-16.6788,13.4962],[-16.5907,13.4614],[-16.6243,13.4272],[-16.5907,13.3385],[-16.5458,13.2901],[-16.4197,13.2556],[-16.4194,13.2082],[-16.3778,13.215],[-16.4399,13.2764],[-16.3747,13.2639],[-16.258,13.3249],[-16.2301,13.3164],[-16.2276,13.256],[-16.2097,13.2512],[-16.1513,13.2764],[-16.1993,13.2591],[-16.2271,13.3337],[-16.1612,13.4287],[-15.9949,13.413],[-15.7645,13.4369],[-15.6687,13.4757],[-15.6208,13.4548],[-15.5434,13.5097],[-15.3406,13.4408],[-15.3048,13.4553],[-15.2947,13.4962],[-15.3517,13.4567],[-15.5561,13.5283],[-15.6107,13.4893],[-15.6721,13.503],[-15.7699,13.4651],[-16.1604,13.4506],[-16.2806,13.3598],[-16.2891,13.4068],[-16.3219,13.3428],[-16.5218,13.359],[-16.5035,13.4169],[-16.5565,13.4856],[-16.5758,13.6403],[-16.5082,13.688],[-16.5293,13.701],[-16.5089,13.7402],[-16.5793,13.6596],[-16.64,13.6965],[-16.5764,13.8388],[-16.5491,13.8245],[-16.5565,13.8456],[-16.5218,13.8518],[-16.487,13.8046],[-16.5157,13.8798],[-16.487,14.0026],[-16.5494,13.8693],[-16.6379,13.8456],[-16.7001,13.769],[-16.7424,13.8394],[-16.7468,13.9514],[-16.7025,13.99],[-16.6379,13.9617],[-16.5764,13.989],[-16.5423,14.0373],[-16.5907,14.0436],[-16.4415,14.1566],[-16.3647,14.1678],[-16.4687,14.1938],[-16.4604,14.1541],[-16.5132,14.151],[-16.5565,14.0715],[-16.6542,14.0028],[-16.7211,14.0163],[-16.6523,14.0995],[-16.7279,14.0647],[-16.7751,13.8388],[-16.786,14.0597],[-16.9455,14.3014],[-16.9565,14.3901],[-17.0705,14.4654],[-17.2241,14.6904],[-17.4174,14.7377],[-17.4398,14.6538],[-17.536,14.7574],[-17.371,14.8003],[-17.1387,14.9277],[-16.8782,15.2331],[-16.5389,15.7744],[-16.5392,16.2672],[-16.4672,16.4929],[-16.4592,16.6439],[-16.3431,16.9423],[-16.1726,17.2624],[-16.079,17.5448],[-16.0242,17.9601],[-16.0694,18.484],[-16.132,18.6286],[-16.2046,18.9827],[-16.2828,19.1304],[-16.3683,19.2215],[-16.4672,19.2593],[-16.5355,19.3808],[-16.3592,19.4158],[-16.2849,19.5293],[-16.3073,19.5436],[-16.3915,19.4641],[-16.3647,19.5393],[-16.4651,19.4125],[-16.4225,19.5438],[-16.2338,19.7936],[-16.248,19.9029],[-16.3133,19.8897],[-16.2225,20.0036],[-16.2611,20.1357],[-16.2117,20.1756],[-16.2023,20.2333],[-16.3479,20.4175],[-16.4296,20.6442],[-16.4672,20.6496],[-16.4087,20.675],[-16.4808,20.6751],[-16.5293,20.739],[-16.5423,20.5609],[-16.6727,20.6776],[-16.6711,20.7371],[-16.9176,21.1592],[-17.0159,21.0312],[-17.0044,20.9324],[-17.0494,20.9035],[-17.0279,20.8542],[-17.0569,20.7669],[-17.1002,20.8376],[-16.9477,21.736],[-16.9569,21.8257],[-16.8166,22.1306],[-16.7068,22.2755],[-16.5218,22.3149],[-16.4666,22.3774],[-16.4294,22.5104],[-16.3573,22.5831],[-16.2896,22.8998],[-16.2386,22.9116],[-16.1632,22.9932],[-16.1595,23.0825],[-16.2131,23.0944],[-15.7726,23.7878],[-15.7751,23.9119],[-15.7953,23.8566],[-15.8882,23.8107],[-15.9949,23.645],[-15.9396,23.7748],[-15.8409,23.9027],[-15.6201,24.0263],[-15.204,24.4675],[-15.0148,24.5624],[-15.0,24.6145],[-14.8956,24.7057],[-14.836,24.9187],[-14.8497,25.2142],[-14.8192,25.3302],[-14.621,25.7836],[-14.5139,25.937],[-14.4661,26.1942],[-14.4007,26.2663],[-14.2989,26.3022],[-14.1802,26.4244],[-13.9237,26.5009],[-13.5611,26.7491],[-13.4025,27.1772],[-13.2408,27.4654],[-13.1713,27.685],[-13.0452,27.7598],[-12.9681,27.9146],[-12.8389,27.9704],[-12.5135,27.9954],[-12.0614,28.089],[-11.4856,28.3256],[-11.0631,28.7524],[-10.6124,28.9677],[-10.4509,29.0922],[-10.1418,29.4286],[-10.053,29.5999],[-9.8202,29.8389],[-9.6551,30.1269],[-9.6073,30.3776],[-9.7001,30.5427],[-9.8885,30.6483],[-9.8129,30.8271],[-9.8475,31.1213],[-9.8066,31.3435],[-9.8475,31.4024],[-9.6942,31.6257],[-9.6673,31.7311],[-9.3661,32.0263],[-9.2777,32.1966],[-9.2648,32.3306],[-9.292,32.3508],[-9.2488,32.4525],[-9.2783,32.5295],[-9.2599,32.5769],[-8.8678,32.8819],[-8.5292,33.2687],[-8.4517,33.2642],[-8.2847,33.3898],[-7.8914,33.5034],[-7.6676,33.6127],[-7.5291,33.6326],[-7.4064,33.727],[-7.3526,33.7247],[-6.9274,33.9442],[-6.8221,34.0396],[-6.5579,34.4177],[-6.2921,34.8808],[-5.9272,35.7807],[-5.7693,35.7928],[-5.6935,35.8343],[-5.599,35.8223],[-5.4481,35.9185],[-5.3989,35.9245],[-5.3407,35.8474],[-5.3188,35.7017],[-5.2768,35.6852],[-5.2494,35.5846],[-5.0663,35.4175],[-4.8106,35.26],[-4.6283,35.2054],[-4.3476,35.1501],[-3.9193,35.2668],[-3.9039,35.2142],[-3.7875,35.2092],[-3.6996,35.2908],[-3.591,35.2333],[-3.362,35.1945],[-3.0771,35.2879],[-2.9686,35.4464],[-2.9638,35.2862],[-2.899,35.26],[-2.9098,35.1867],[-2.8561,35.1313],[-2.7481,35.116],[-2.8784,35.2463],[-2.7611,35.1433],[-2.6667,35.1082],[-2.5175,35.0994],[-2.4167,35.1492],[-2.2226,35.0893],[-1.9565,35.075],[-1.7611,35.1296],[-1.5104,35.2955],[-1.364,35.3183],[-1.2677,35.3903],[-1.1833,35.5765],[-1.0329,35.6826],[-0.8876,35.716],[-0.8017,35.7739],[-0.6925,35.7193],[-0.6265,35.723],[-0.5234,35.7797],[-0.4795,35.89],[-0.3485,35.907],[-0.2856,35.8283],[-0.0831,35.7944],[0.0345,35.8633],[0.1273,36.0508],[0.3211,36.1589],[0.3423,36.206],[0.4513,36.2232],[0.6441,36.3288],[0.8648,36.3774],[0.9456,36.4523],[1.0448,36.4869],[1.3677,36.5479],[1.4528,36.528],[2.0599,36.5701],[2.3296,36.6373],[2.4473,36.5906],[2.6008,36.5963],[2.793,36.6929],[2.9331,36.8086],[3.0142,36.8117],[3.1401,36.7416],[3.2105,36.7574],[3.2273,36.8123],[3.4805,36.7772],[3.8739,36.9172],[4.1048,36.8837],[4.262,36.9116],[4.7871,36.8954],[5.1048,36.7813],[5.0902,36.7168],[5.3044,36.643],[5.4649,36.6652],[5.549,36.7097],[5.5939,36.7739],[5.7337,36.8323],[5.8688,36.8229],[6.197,36.9023],[6.2568,36.9458],[6.2669,37.0178],[6.4158,37.093],[6.5442,37.0588],[6.5995,36.9731],[6.822,36.9526],[6.9094,36.8931],[7.157,36.9147],[7.2542,36.9947],[7.1817,37.0767],[7.2227,37.0898],[7.3835,37.083],[7.4046,37.0516],[7.4902,37.055],[7.5889,36.9876],[7.7127,36.9632],[7.7986,36.9936],[7.7734,36.89],[7.8665,36.8544],[8.05,36.8776],[8.2332,36.9581],[8.2881,36.9259],[8.4976,36.9042],[8.8244,36.9795],[9.0387,37.1518],[9.2107,37.2338],[9.3425,37.2353],[9.7446,37.3452],[9.8589,37.3288],[9.8617,37.2712],[9.7718,37.2133],[9.8159,37.1518],[9.9143,37.1783],[9.925,37.2131],[9.8196,37.2276],[9.8825,37.2636],[10.0598,37.2648],[10.2721,37.1785],[10.1281,37.1587],[10.2271,37.1177],[10.1743,37.0762],[10.1824,37.027],[10.3472,36.8803],[10.2988,36.8218],[10.2529,36.8463],[10.1885,36.7976],[10.2472,36.7863],[10.2721,36.8161],[10.3553,36.7312],[10.5187,36.7558],[10.585,36.8762],[10.7335,36.8958],[10.8875,37.006],[10.9021,37.0488],[11.0127,37.0848],[11.051,37.0803],[11.0483,37.0203],[11.1362,36.8705],[11.0221,36.7883],[10.7999,36.4519],[10.5509,36.3773],[10.4793,36.217],[10.4795,36.0793],[10.6086,35.8559],[10.7131,35.7792],[10.8231,35.7805],[10.8412,35.6988],[11.041,35.6377],[11.055,35.6145],[11.0171,35.6023],[11.0149,35.5552],[11.0851,35.5068],[11.0507,35.4598],[11.0422,35.3344],[11.1608,35.2382],[11.0159,35.0928],[11.0181,35.0342],[10.9177,34.9574],[10.9163,34.8736],[10.8563,34.8309],[10.8714,34.7974],[10.7173,34.6647],[10.6253,34.6332],[10.5816,34.5327],[10.466,34.5119],[10.3787,34.4231],[10.2881,34.414],[10.1267,34.3256],[10.0052,34.1706],[10.0713,33.9462],[10.3303,33.7028],[10.4893,33.6471],[10.7166,33.7069],[10.7369,33.6028],[10.6741,33.5456],[10.7381,33.478],[10.9094,33.5396],[10.9328,33.574],[10.9065,33.6164],[10.9362,33.6363],[11.0428,33.6179],[11.1116,33.54],[11.1021,33.3641],[11.2937,33.2868],[11.1336,33.3114],[11.1218,33.28],[11.1795,33.2111],[11.4331,33.1935],[11.3519,33.2589],[11.6358,33.1087],[11.7935,33.0808],[11.6911,33.136],[11.847,33.0828],[12.3039,32.8431],[12.7298,32.7986],[13.0745,32.8664],[13.1647,32.9127],[13.3517,32.9042],[13.5715,32.8028],[13.8303,32.7941],[14.1853,32.7145],[14.4695,32.519],[14.7268,32.4508],[15.182,32.3955],[15.2831,32.3173],[15.3645,32.1747],[15.3611,31.9653],[15.4904,31.6649],[15.6228,31.4973],[15.7615,31.3881],[16.0446,31.2755],[16.9419,31.1833],[17.3659,31.0866],[17.4668,31.03],[17.8486,30.9237],[17.9268,30.8552],[18.2083,30.7692],[18.6532,30.4223],[18.968,30.2777],[19.2398,30.274],[19.6164,30.4214],[19.7489,30.5109],[20.0365,30.8191],[20.1467,31.0456],[20.1467,31.2168],[20.0222,31.3968],[19.9172,31.7592],[19.9401,31.9578],[20.0715,32.1764],[20.3255,32.4098],[20.5627,32.5578],[21.051,32.7723],[21.4148,32.7934],[21.6087,32.9307],[21.7163,32.9504],[21.8775,32.9032],[22.1496,32.9479],[22.2068,32.8881],[22.3396,32.8821],[22.5138,32.791],[23.1061,32.6398],[23.1039,32.5163],[23.1489,32.4781],[23.1284,32.3955],[23.0944,32.4365],[23.0806,32.3341],[23.1951,32.2917],[23.3122,32.1627],[23.2991,32.2242],[23.8403,32.1491],[23.9987,32.0939],[23.9707,32.0666],[24.0907,32.0058],[24.5461,31.9914],[24.7337,32.0331],[24.9817,31.9679],[25.0334,31.9163],[25.0296,31.8369],[25.1563,31.6631],[25.1909,31.5315],[25.4019,31.5032],[25.8241,31.6149],[25.9668,31.6166],[26.8657,31.4368],[26.9655,31.4497],[27.2262,31.3677],[27.3275,31.3792],[27.3936,31.2547],[27.4463,31.2232],[27.6603,31.1802],[27.8529,31.2403],[27.9269,31.099],[28.3184,31.0598],[28.4243,31.0834],[28.812,30.9568],[28.8357,30.9108],[29.0281,30.8271],[29.2189,30.838],[29.5033,30.9567],[29.7815,31.1479],[29.8384,31.1541],[29.877,31.2136],[29.8982,31.2032],[30.0696,31.3335],[30.0949,31.2856],[30.1726,31.2714],[30.1401,31.2372],[30.1652,31.2168],[30.2205,31.2202],[30.2688,31.2653],[30.2887,31.2379],[30.2876,31.2782],[30.1795,31.2783],[30.3128,31.3506],[30.3484,31.4213],[30.3439,31.498],[30.3646,31.4601],[30.3986,31.4433],[30.3622,31.5087],[30.4564,31.4627],[30.5358,31.4639],[30.9739,31.5867],[30.5427,31.4024],[30.6267,31.3887],[30.6751,31.4216],[30.7344,31.3881],[30.7985,31.4465],[30.8924,31.4191],[30.9397,31.457],[30.9807,31.4365],[31.0291,31.5185],[31.1192,31.4931],[31.1111,31.5397],[30.978,31.5843],[31.0974,31.6079],[31.5568,31.4433],[31.8744,31.5356],[31.9129,31.5349],[31.9448,31.5209],[32.0249,31.4001],[32.1996,31.2951],[31.995,31.395],[31.9683,31.4365],[31.9935,31.4378],[31.8895,31.5321],[31.8447,31.498],[31.8789,31.4291],[31.8416,31.4645],[31.8242,31.4433],[31.8789,31.4161],[31.8304,31.4086],[31.8279,31.3684],[31.8584,31.354],[31.7972,31.3595],[31.7669,31.2847],[31.8858,31.2236],[31.9063,31.2516],[31.8926,31.2168],[31.9264,31.187],[31.9866,31.2303],[32.0371,31.2168],[32.0161,31.1281],[32.0501,31.1417],[32.0701,31.1069],[32.044,31.0865],[32.1065,31.0534],[32.1321,31.066],[32.098,31.0933],[32.1463,31.0797],[32.1838,31.1249],[32.2341,31.1049],[32.2835,31.1365],[32.2625,31.1696],[32.2898,31.1696],[32.283,31.2653],[32.207,31.2951],[32.3314,31.2714],[32.5095,31.1069],[32.6016,31.061],[32.762,31.0812],[32.9273,31.1554],[32.8396,31.1012],[32.6665,31.0523],[32.7313,31.0388],[32.8931,31.1008],[32.9172,31.0828],[32.9271,31.1118],[33.0099,31.0563],[33.0643,31.1349],[33.0303,31.1008],[32.9544,31.1069],[33.1094,31.1964],[33.1577,31.1179],[33.119,31.1069],[33.1333,31.0456],[33.2214,31.0598],[33.1948,31.0734],[33.2625,31.1008],[33.304,31.0797],[33.3176,31.1008],[33.2772,31.1069],[33.3865,31.1144],[33.4064,31.1554],[33.4995,31.1281],[33.648,31.1173],[34.047,31.2292],[34.2003,31.3143],[34.4804,30.6512],[34.5362,30.4822],[34.5269,30.4096],[34.5995,30.3445],[34.7332,30.0126],[34.8867,29.4901],[34.7366,29.3113],[34.729,29.1989],[34.6746,29.1065],[34.6857,28.9887],[34.6403,28.9488],[34.6245,28.736],[34.4102,28.32],[34.4129,28.2331],[34.4553,28.1749],[34.4349,27.9756],[34.3313,27.9141],[34.2591,27.8017],[34.2141,27.7915],[34.2573,27.7695],[34.2573,27.7286],[34.1898,27.7868],[34.0545,27.8145],[33.7634,28.024],[33.5647,28.2971],[33.4339,28.3664],[33.2562,28.5441],[33.2629,28.5771],[33.2376,28.5661],[33.2562,28.5516],[33.2287,28.5694],[33.1948,28.6751],[33.2283,28.7639],[33.1746,28.837],[33.1779,28.9896],[32.8856,29.2431],[32.8172,29.414],[32.7347,29.4838],[32.715,29.456],[32.7241,29.5395],[32.6808,29.5999],[32.6907,29.7336],[32.6045,29.8242],[32.6253,29.8743],[32.5715,29.9289],[32.5778,30.0114],[32.5715,29.9426],[32.5134,29.9616],[32.4769,29.9322],[32.4729,29.882],[32.5095,29.8668],[32.3928,29.7344],[32.3377,29.5925],[32.5915,29.3495],[32.6589,29.1108],[32.6255,28.9727],[32.7492,28.8048],[32.8069,28.7781],[32.8689,28.5789],[33.0029,28.4895],[33.2494,28.1429],[33.3381,28.0854],[33.3436,28.0506],[33.4417,28.0165],[33.5544,27.8965],[33.5921,27.7912],[33.4889,27.8459],[33.4735,27.8232],[33.5227,27.7519],[33.5579,27.7599],[33.5368,27.7081],[33.5921,27.6466],[33.5579,27.6814],[33.4963,27.6466],[33.5647,27.5715],[33.5579,27.5368],[33.633,27.4958],[33.6917,27.3419],[33.8384,27.2426],[33.8368,27.1208],[33.9961,26.8966],[33.9961,26.8379],[33.9483,26.831],[33.9414,26.6535],[34.014,26.6116],[34.3387,26.0018],[34.5466,25.725],[34.6819,25.4287],[34.9898,24.905],[35.0022,24.8156],[35.0635,24.7641],[35.1603,24.5746],[35.1446,24.5002],[35.3919,24.2828],[35.4938,24.1089],[35.5039,24.1405],[35.5884,24.0758],[35.6053,24.0188],[35.7386,23.9833],[35.7925,23.9023],[35.7504,23.9324],[35.6845,23.9109],[35.5985,23.9294],[35.5139,23.9771],[35.4839,23.9178],[35.4748,23.7979],[35.5101,23.7564],[35.4894,23.497],[35.5475,23.394],[35.5747,23.2126],[35.6211,23.1393],[35.6546,23.0738],[35.6953,22.9321],[35.7637,22.8704],[35.7234,22.9319],[35.7557,22.9223],[35.7849,22.8332],[35.886,22.7357],[36.2261,22.6354],[36.2905,22.5682],[36.3134,22.4916],[36.4281,22.426],[36.4398,22.3564],[36.5628,22.2967],[36.7137,22.1691],[36.7822,22.1645],[36.8954,22.0661],[36.8806,21.9807],[36.8401,21.9661],[36.8735,21.9361],[36.8879,21.6501],[37.1136,21.2781],[37.313,21.0577],[37.304,21.0209],[37.252,21.006],[37.1893,21.0972],[37.2721,21.0543],[37.2297,21.1278],[37.1592,21.148],[37.1486,21.2187],[37.105,21.2075],[37.1178,21.0861],[37.0864,21.0406],[37.1473,20.9409],[37.228,20.565],[37.2224,20.4682],[37.1789,20.4499],[37.1751,20.3492],[37.2249,20.1195],[37.1888,20.0132],[37.2653,19.7869],[37.2438,19.5762],[37.3335,19.1597],[37.4343,18.8617],[37.5398,18.7159],[37.6747,18.741],[37.7407,18.7092],[37.7581,18.6286],[37.9255,18.585],[38.1219,18.4133],[38.0761,18.3481],[38.1517,18.2493],[38.2454,18.2439],[38.2512,18.2808],[38.3062,18.3065],[38.2762,18.242],[38.2173,18.2177],[38.3762,18.1906],[38.3914,18.2242],[38.4338,18.1423],[38.4917,18.1414],[38.5122,18.0737],[38.5417,18.0859],[38.5259,18.1284],[38.5845,18.0771],[38.6698,17.854],[38.929,17.3971],[38.9526,17.2535],[39.0559,17.0341],[39.1497,16.7169],[39.1509,16.5294],[39.177,16.5214],[39.1974,16.2986],[39.2941,15.9288],[39.437,15.812],[39.4233,15.7676],[39.4779,15.6611],[39.4446,15.6352],[39.4849,15.6339],[39.4302,15.6031],[39.4575,15.5246],[39.5518,15.5423],[39.6113,15.5],[39.7183,15.2639],[39.7156,15.0941],[39.8113,15.0789],[39.8547,15.1735],[39.8177,15.2812],[39.7897,15.2575],[39.7809,15.2781],[39.7734,15.3905],[39.8071,15.4589],[39.8753,15.5041],[40.0799,15.3407],[40.0266,15.2372],[40.0813,15.1645],[40.1018,15.0646],[40.1543,15.0373],[40.1594,14.9822],[40.2868,14.9135],[40.3898,15.0032],[40.4014,14.9661],[40.4544,15.0045],[40.499,14.9622],[40.5127,15.0175],[40.561,14.9554],[40.6164,14.9487],[40.6277,14.892],[40.6945,14.8962],[40.6709,14.8803],[40.7324,14.8257],[40.7239,14.7571],[40.7664,14.6953],[40.8845,14.7145],[41.1675,14.6369],[41.3068,14.4889],[41.3359,14.402],[41.5059,14.2134],[41.5418,14.1262],[41.6209,14.0636],[41.6765,13.9403],[41.7981,13.9344],[41.849,13.8762],[41.9697,13.8456],[42.1066,13.6435],[42.1438,13.6504],[42.2239,13.5539],[42.1987,13.5987],[42.2197,13.6326],[42.1599,13.6566],[42.1848,13.6675],[42.2884,13.5746],[42.3794,13.2226],[42.4768,13.1945],[42.5339,13.2326],[42.6554,13.0723],[42.7297,13.0331],[42.7813,12.8519],[42.8358,12.8649],[42.928,12.7897],[42.978,12.824],[43.001,12.9003],[43.0295,12.8789],[43.0864,12.8209],[43.1618,12.6427],[43.2974,12.482],[43.3294,12.4888],[43.4143,12.2249],[43.3988,12.0295],[43.3504,11.9879],[43.2066,11.9578],[43.0555,11.8036],[42.7772,11.7322],[42.668,11.5685],[42.5269,11.5825],[42.5387,11.503],[42.6038,11.4678],[42.6725,11.4797],[42.6941,11.546],[42.8558,11.5958],[43.1034,11.577],[43.1519,11.6118],[43.1838,11.5266],[43.2669,11.4623],[43.2883,11.4604],[43.2827,11.4989],[43.376,11.3916],[43.4597,11.3511],[43.4894,11.3809],[43.4881,11.2389],[43.563,11.1703],[43.6589,10.988],[43.8296,10.803],[44.3476,10.4145],[44.5861,10.3836],[44.7507,10.4279],[44.962,10.4158],[44.988,10.4604],[45.3206,10.6621],[45.4871,10.6847],[45.7693,10.8781],[45.8556,10.824],[45.8845,10.8412],[46.1022,10.7707],[46.2376,10.7924],[46.3351,10.7097],[46.4478,10.6931],[46.6597,10.7543],[46.8865,10.8986],[47.0081,10.939],[47.1807,11.0805],[47.4059,11.1846],[47.5227,11.187],[47.7105,11.1013],[47.7673,11.1302],[48.1304,11.1367],[48.3428,11.2755],[48.522,11.3193],[48.6548,11.3306],[48.8888,11.2506],[48.9768,11.2514],[49.2396,11.3003],[49.3035,11.3454],[49.4192,11.3448],[49.5217,11.3938],[49.5768,11.46],[49.8049,11.4584],[49.9421,11.5156],[50.0725,11.5087],[50.437,11.6906],[50.5127,11.7712],[50.5759,11.921],[50.7979,11.9891],[51.0488,11.8786],[51.2927,11.8331],[51.2478,11.6524],[51.1209,11.5053],[51.0813,11.3415],[51.0859,11.188],[51.1895,11.1383],[51.1151,10.9934],[51.1607,10.5985],[51.1074,10.5766],[51.0923,10.4822],[51.0101,10.434],[51.2204,10.442],[51.1761,10.5628],[51.2925,10.4801],[51.3952,10.479],[51.417,10.4475],[51.3761,10.3677],[51.2729,10.3779],[51.241,10.4256],[51.0901,10.4073],[50.9274,10.3278],[50.8838,10.1013],[50.9017,10.0117],[50.8062,9.6245],[50.8303,9.4196],[50.647,9.2114],[50.6336,9.0732],[50.4397,8.8882],[50.3265,8.6411],[50.3035,8.5046],[50.1564,8.3206],[50.0911,8.161],[49.9294,8.0517],[49.8242,7.9339],[49.8032,7.8269],[49.825,7.7578],[49.7442,7.5891],[49.2473,6.8106],[49.0747,6.4153],[49.0856,6.3074],[49.0361,6.1442],[48.6467,5.48],[48.2024,4.9089],[47.9485,4.4571],[46.8342,3.2325],[46.3516,2.7886],[46.0476,2.4551],[45.2322,1.9677],[45.0015,1.8664],[44.5501,1.5591],[44.1579,1.2408],[44.138,1.1916],[43.9326,1.0098],[43.7819,0.9216],[43.4676,0.6206],[42.5803,-0.2975],[42.4797,-0.4221],[42.4764,-0.466],[42.4126,-0.491],[42.1922,-0.7761],[42.0715,-0.8287],[42.072,-0.8845],[41.9719,-0.9998],[41.9528,-0.8945],[41.9717,-1.0236],[41.8739,-1.176],[41.8854,-1.2096],[41.8291,-1.1689],[41.8366,-1.2623],[41.6521,-1.5651],[41.3035,-1.9562],[41.2315,-1.9555],[41.219,-1.9225],[41.1858,-1.9902],[41.1091,-1.9776],[41.0129,-2.0424],[40.9795,-2.005],[41.0061,-1.9018],[40.9707,-1.929],[40.9453,-2.0732],[40.861,-1.9635],[40.912,-2.192],[40.9793,-2.2421],[40.9695,-2.279],[40.9226,-2.3137],[40.9522,-2.2861],[40.863,-2.2314],[40.7739,-2.2792],[40.8169,-2.3979],[40.6506,-2.5393],[40.4909,-2.5285],[40.3898,-2.5603],[40.2321,-2.669],[40.175,-2.7626],[40.1626,-2.9343],[40.1907,-2.9881],[40.2329,-2.9819],[40.1638,-3.067],[40.1192,-3.1835],[40.1229,-3.2673],[39.9891,-3.3732],[39.992,-3.3071],[39.9661,-3.3212],[39.9652,-3.3992],[39.866,-3.6165],[39.7809,-3.5666],[39.8001,-3.6347],[39.8601,-3.6332],[39.867,-3.6949],[39.7864,-3.9172],[39.7321,-3.9464],[39.7121,-3.8974],[39.6838,-3.9172],[39.7453,-3.9687],[39.7083,-4.0375],[39.6812,-4.0479],[39.6605,-3.9708],[39.6057,-3.9697],[39.6356,-4.017],[39.5606,-4.0398],[39.5674,-4.0812],[39.6151,-4.0593],[39.6697,-4.088],[39.5401,-4.4304],[39.506,-4.4381],[39.4507,-4.582],[39.4439,-4.52],[39.3914,-4.5711],[39.3962,-4.629],[39.3005,-4.595],[39.1906,-4.6775],[39.2161,-4.7491],[39.1702,-4.78],[39.216,-4.7957],[39.2136,-4.8564],[39.1623,-4.9387],[39.1633,-4.8483],[39.1087,-4.9166],[39.1322,-5.0102],[39.0828,-5.0615],[39.1292,-5.0475],[39.1428,-5.0959],[39.0436,-5.2322],[39.0806,-5.2311],[39.0264,-5.3785],[38.9813,-5.4174],[38.9854,-5.505],[38.8889,-5.6371],[38.8952,-5.7105],[38.8325,-5.8156],[38.7791,-6.0549],[38.8568,-6.1637],[38.8522,-6.3487],[38.9151,-6.4367],[38.9647,-6.4732],[39.0409,-6.4701],[39.2127,-6.6418],[39.2459,-6.7311],[39.28,-6.7271],[39.2803,-6.8305],[39.4645,-6.8577],[39.5537,-7.0007],[39.5475,-7.1183],[39.4979,-7.1772],[39.4779,-7.1511],[39.4359,-7.1803],[39.3698,-7.3069],[39.3278,-7.3093],[39.3543,-7.3708],[39.304,-7.4485],[39.2747,-7.5964],[39.302,-7.7541],[39.2526,-7.8233],[39.305,-7.7918],[39.3278,-7.7263],[39.3552,-7.7525],[39.3408,-7.7817],[39.3955,-7.7799],[39.4435,-7.8326],[39.4209,-7.902],[39.4544,-8.0104],[39.3408,-8.2068],[39.3483,-8.2751],[39.3278,-8.2956],[39.2937,-8.2688],[39.28,-8.3093],[39.3031,-8.5055],[39.3577,-8.5883],[39.3543,-8.714],[39.4391,-8.7555],[39.5537,-8.9223],[39.4494,-8.8587],[39.3887,-8.8989],[39.4642,-8.8989],[39.4476,-8.9256],[39.4919,-8.9384],[39.4985,-9.1242],[39.5692,-9.093],[39.6438,-9.1891],[39.6428,-9.3686],[39.5691,-9.405],[39.5674,-9.4475],[39.6159,-9.4249],[39.6507,-9.4448],[39.7409,-9.6668],[39.7466,-9.7065],[39.697,-9.7449],[39.7523,-9.7486],[39.8006,-9.8238],[39.8001,-9.8727],[39.7523,-9.879],[39.7902,-9.923],[39.7142,-9.9521],[39.7244,-10.0075],[39.6908,-10.0434],[39.7632,-9.9828],[39.8269,-9.9903],[39.9143,-10.0339],[39.9749,-10.1334],[39.9851,-10.221],[39.9888,-10.1313],[40.0198,-10.1329],[40.1327,-10.1697],[40.1206,-10.2712],[40.1604,-10.2805],[40.1738,-10.2551],[40.2321,-10.2966],[40.2669,-10.2687],[40.198,-10.2421],[40.2321,-10.2005],[40.3488,-10.3581],[40.4221,-10.3556],[40.3926,-10.3121],[40.427,-10.3001],[40.4494,-10.3454],[40.4109,-10.3923],[40.4369,-10.3923],[40.4369,-10.4748],[40.527,-10.4885],[40.5066,-10.5663],[40.561,-10.5846],[40.5778,-10.6498],[40.655,-10.6869],[40.5698,-10.6967],[40.4854,-10.7621],[40.4922,-10.797],[40.5127,-10.7696],[40.6203,-10.8409],[40.4961,-10.9557],[40.5065,-11.0372],[40.5661,-11.0139],[40.499,-11.1396],[40.5065,-11.1874],[40.3972,-11.3108],[40.3488,-11.3171],[40.3755,-11.3587],[40.383,-11.3381],[40.4369,-11.3922],[40.4658,-11.3852],[40.4233,-11.5632],[40.458,-11.6051],[40.4276,-11.6501],[40.4795,-11.8234],[40.5202,-11.839],[40.4862,-11.8952],[40.5369,-11.9968],[40.499,-12.1266],[40.5249,-12.2045],[40.4512,-12.2636],[40.5137,-12.3006],[40.5095,-12.3803],[40.561,-12.3871],[40.4782,-12.5011],[40.562,-12.53],[40.5648,-12.6131],[40.6196,-12.6451],[40.568,-12.6496],[40.5781,-12.7063],[40.6089,-12.7018],[40.6468,-12.7553],[40.627,-12.7936],[40.5679,-12.7775],[40.5747,-12.8049],[40.532,-12.8115],[40.5545,-12.8469],[40.5244,-12.9094],[40.4841,-12.8813],[40.4109,-12.9421],[40.4834,-13.0219],[40.5124,-12.999],[40.5002,-12.948],[40.5952,-12.9757],[40.561,-13.0991],[40.5679,-13.2433],[40.527,-13.2983],[40.5679,-13.2848],[40.5679,-13.3666],[40.5884,-13.3604],[40.527,-13.5106],[40.5952,-13.5652],[40.5394,-13.6364],[40.6506,-14.0319],[40.5952,-14.0854],[40.6195,-14.1272],[40.5386,-14.1645],[40.5542,-14.2301],[40.5949,-14.2146],[40.5915,-14.2633],[40.6471,-14.2026],[40.6963,-14.1826],[40.7207,-14.2048],[40.7324,-14.3399],[40.6846,-14.3671],[40.6362,-14.3399],[40.6566,-14.4492],[40.6296,-14.4499],[40.6294,-14.5663],[40.7005,-14.4321],[40.7733,-14.4013],[40.8284,-14.4343],[40.832,-14.4941],[40.76,-14.5261],[40.8338,-14.5388],[40.8114,-14.613],[40.8435,-14.6686],[40.8425,-14.7929],[40.7097,-14.8953],[40.6741,-14.9015],[40.6431,-14.8538],[40.6709,-14.9221],[40.7461,-14.9221],[40.7739,-14.9977],[40.6709,-14.9767],[40.7119,-15.0729],[40.528,-15.131],[40.5127,-15.1821],[40.5809,-15.2032],[40.6354,-15.1646],[40.6817,-15.233],[40.5884,-15.4086],[40.5818,-15.4921],[40.499,-15.5253],[40.3636,-15.7148],[40.065,-15.9892],[40.072,-16.0095],[40.1291,-15.9636],[40.1348,-15.9865],[39.9924,-16.2224],[39.8753,-16.2448],[39.7834,-16.3019],[39.808,-16.3889],[39.856,-16.4298],[39.7938,-16.4638],[39.7864,-16.4365],[39.7461,-16.4433],[39.766,-16.4638],[39.6784,-16.5461],[39.1292,-16.8679],[39.0807,-16.9157],[39.1223,-16.9368],[39.0746,-16.9914],[38.7183,-17.0597],[38.6629,-17.0256],[38.6668,-17.0754],[38.5998,-17.0761],[38.5531,-17.1218],[38.5122,-17.1047],[38.5054,-17.1354],[38.1729,-17.2875],[38.1377,-17.2638],[38.1362,-17.1965],[38.1218,-17.1769],[38.1167,-17.2019],[38.0808,-17.1907],[38.1279,-17.2863],[37.9089,-17.3552],[37.5806,-17.519],[37.2422,-17.7365],[37.1895,-17.7387],[36.9841,-18.0124],[36.8879,-17.881],[36.8328,-17.8776],[36.8196,-17.9033],[36.8735,-17.899],[36.9075,-18.0144],[36.9772,-18.0466],[36.8874,-18.1891],[36.8112,-18.1869],[36.7854,-18.2321],[36.8475,-18.198],[36.7663,-18.3002],[36.552,-18.486],[36.5383,-18.5407],[36.4729,-18.5564],[36.4175,-18.6887],[36.3843,-18.6987],[36.3724,-18.7418],[36.4019,-18.7394],[36.4075,-18.7848],[36.3589,-18.8041],[36.2954,-18.7802],[36.2381,-18.6941],[36.2669,-18.8909],[36.1467,-18.9005],[36.1238,-18.8007],[36.0095,-18.9208],[35.9767,-18.9249],[35.9689,-18.893],[35.929,-18.9651],[35.8553,-18.9513],[35.8674,-18.9885],[35.6623,-19.133],[35.6409,-19.1707],[35.6682,-19.1707],[35.3399,-19.5207],[35.1268,-19.705],[34.8801,-19.8634],[34.84,-19.8444],[34.8231,-19.7867],[34.7058,-19.7156],[34.6267,-19.5959],[34.5686,-19.5759],[34.5304,-19.6163],[34.6138,-19.6116],[34.6919,-19.7429],[34.7776,-19.815],[34.7576,-19.8691],[34.7092,-19.8839],[34.7648,-19.9033],[34.7489,-20.0268],[34.7749,-20.1521],[34.7565,-20.1804],[34.6553,-20.1515],[34.7433,-20.2265],[34.6799,-20.3469],[34.6987,-20.3732],[34.6403,-20.3761],[34.7163,-20.467],[34.6683,-20.5411],[34.7399,-20.5243],[34.8325,-20.6121],[34.8518,-20.6708],[34.8936,-20.6585],[34.8724,-20.7131],[34.9556,-20.696],[34.9933,-20.7302],[35.0239,-20.7944],[35.0096,-20.8429],[35.0519,-20.8839],[35.0376,-20.9384],[35.0798,-20.9138],[35.1133,-20.9459],[35.1077,-20.9987],[35.0654,-21.0178],[35.0788,-21.0851],[35.0249,-21.0849],[35.0164,-21.1111],[35.0859,-21.2133],[35.0475,-21.2529],[35.0723,-21.322],[35.127,-21.1786],[35.1201,-21.3772],[35.271,-21.6441],[35.2686,-21.7736],[35.3358,-22.0891],[35.3057,-22.3886],[35.3941,-22.4877],[35.428,-22.4057],[35.3909,-22.2716],[35.4149,-22.2065],[35.4359,-22.2428],[35.4491,-22.2268],[35.4149,-22.1791],[35.4414,-22.1196],[35.5008,-22.1061],[35.5173,-22.3102],[35.5514,-22.1791],[35.4894,-22.69],[35.5379,-22.947],[35.6061,-22.9147],[35.4785,-23.1769],[35.4894,-23.2753],[35.4241,-23.4806],[35.3904,-23.748],[35.3816,-23.6777],[35.3403,-23.6762],[35.3672,-23.7277],[35.3324,-23.9645],[35.3877,-23.9127],[35.3801,-23.8444],[35.4661,-23.8801],[35.4758,-23.7824],[35.5274,-23.803],[35.5432,-23.8632],[35.4588,-24.1666],[35.1065,-24.5979],[34.6489,-24.8128],[33.7292,-25.1051],[33.3176,-25.287],[33.2772,-25.2968],[33.3325,-25.2485],[33.2146,-25.2973],[33.242,-25.3098],[33.2273,-25.332],[32.8447,-25.5727],[32.7695,-25.6817],[32.7399,-25.8259],[32.7347,-25.804],[32.7043,-25.8242],[32.627,-25.944],[32.4852,-25.9654],[32.4914,-26.0141],[32.5088,-25.9685],[32.6057,-26.0304],[32.6808,-26.1882],[32.7481,-26.1915],[32.8425,-26.2887],[32.8794,-26.2775],[32.8948,-26.1147],[32.9544,-26.0789],[32.9551,-26.1056],[32.8652,-27.0173],[32.6765,-27.5207],[32.5505,-28.1716],[32.4392,-28.3666],[32.3997,-28.3879],[32.4282,-28.4294],[32.3921,-28.5353],[32.0838,-28.7995],[32.0169,-28.7849],[31.994,-28.8062],[32.0161,-28.8336],[32.0701,-28.8056],[32.0121,-28.8665],[31.8884,-28.9247],[31.7691,-28.9223],[31.7827,-28.9496],[31.365,-29.3326],[31.1869,-29.5603],[31.0555,-29.7898],[31.0558,-29.8683],[31.0061,-29.8762],[31.0012,-29.9024],[31.0633,-29.8744],[31.0496,-29.9086],[30.8906,-30.0501],[30.3923,-30.8471],[30.0099,-31.2922],[29.8641,-31.4116],[29.742,-31.4575],[29.6199,-31.586],[29.4116,-31.6775],[29.2136,-31.9438],[29.1476,-31.9698],[28.8704,-32.287],[28.5486,-32.5624],[28.3369,-32.7094],[28.1555,-32.7885],[28.094,-32.8875],[27.8971,-33.04],[27.7327,-33.1088],[27.1009,-33.5253],[26.5151,-33.7553],[26.2866,-33.7664],[25.9553,-33.7109],[25.7111,-33.7742],[25.6531,-33.8227],[25.6149,-33.935],[25.6975,-34.0349],[25.4105,-34.033],[25.1926,-33.9622],[25.0115,-33.971],[24.9133,-34.0113],[24.9274,-34.0523],[24.8411,-34.1325],[24.8613,-34.1783],[24.8273,-34.2057],[24.4785,-34.1578],[24.1631,-34.0548],[23.6355,-33.9797],[23.3869,-34.0312],[23.3612,-34.0667],[23.4084,-34.11],[23.0628,-34.0827],[23.049,-34.0411],[22.9981,-34.0275],[23.0322,-34.0861],[22.936,-34.0827],[22.8001,-34.0356],[22.8125,-34.0007],[22.7746,-33.9836],[22.7305,-33.9797],[22.7668,-34.0329],[22.5837,-33.9941],[22.4554,-34.0571],[22.1692,-34.0832],[22.111,-34.1415],[22.1477,-34.1783],[21.947,-34.2237],[21.8945,-34.336],[21.7887,-34.3813],[21.7026,-34.3906],[21.5376,-34.3489],[21.3059,-34.4246],[20.9613,-34.3561],[20.8052,-34.398],[20.8682,-34.4379],[20.8411,-34.465],[20.6643,-34.4384],[20.5244,-34.4543],[20.2224,-34.6751],[20.0726,-34.7369],[20.0444,-34.7683],[20.0579,-34.8014],[19.9993,-34.822],[19.8584,-34.7497],[19.6424,-34.7721],[19.3987,-34.6018],[19.2969,-34.6178],[19.3602,-34.5004],[19.2904,-34.4091],[19.1193,-34.4006],[19.0852,-34.3565],[19.1399,-34.2944],[19.0884,-34.3427],[18.8176,-34.3769],[18.8225,-34.185],[18.8582,-34.1503],[18.8001,-34.0895],[18.555,-34.0738],[18.4784,-34.1069],[18.4403,-34.1578],[18.4745,-34.2262],[18.4701,-34.3474],[18.4063,-34.3019],[18.3838,-34.2187],[18.3163,-34.1575],[18.3584,-34.0548],[18.3304,-34.0622],[18.3148,-34.0291],[18.3721,-33.9251],[18.4754,-33.8998],[18.4844,-33.8439],[18.4001,-33.6334],[18.3203,-33.5675],[18.3074,-33.4793],[18.1462,-33.3559],[18.0752,-33.2022],[17.9549,-33.102],[18.0059,-33.0917],[18.0991,-33.2009],[18.1275,-33.1974],[18.0409,-33.1017],[18.0374,-33.0338],[17.9706,-33.0024],[17.9019,-33.0369],[17.8625,-32.9072],[17.881,-32.8676],[17.843,-32.8233],[17.8973,-32.7927],[17.9059,-32.7258],[17.9675,-32.7035],[18.0374,-32.7668],[18.1188,-32.773],[18.2731,-32.6476],[18.3108,-32.5728],[18.3379,-32.4516],[18.3154,-32.3437],[18.3494,-32.2603],[18.2769,-31.8927],[18.2137,-31.7306],[17.7453,-31.1288],[17.282,-30.3478],[17.0857,-29.8338],[17.0078,-29.5392],[16.8433,-29.2114],[16.8241,-29.101],[16.6004,-28.8575],[16.5628,-28.7128],[16.4719,-28.6254],[16.4871,-28.5729],[16.4458,-28.6105],[16.3469,-28.5561],[15.6789,-27.9428],[15.673,-27.8699],[15.5335,-27.7302],[15.5207,-27.6337],[15.2953,-27.3224],[15.2285,-26.9456],[15.1589,-26.8971],[15.083,-26.6952],[15.1066,-26.6326],[15.1346,-26.6271],[15.1445,-26.6749],[15.1687,-26.5922],[15.1056,-26.4206],[14.9663,-26.3352],[14.9391,-26.1471],[14.979,-26.0588],[14.9077,-25.9153],[14.9186,-25.8455],[14.8403,-25.7517],[14.8796,-25.5387],[14.8013,-25.2628],[14.8533,-25.0642],[14.7808,-24.8034],[14.6019,-24.5624],[14.6123,-24.4457],[14.4592,-24.0983],[14.4519,-23.9885],[14.5139,-23.8923],[14.4953,-23.5785],[14.4343,-23.4152],[14.4797,-23.3448],[14.4904,-23.3697],[14.492,-23.3092],[14.4102,-22.9708],[14.4351,-22.8798],[14.4443,-22.9528],[14.4729,-22.9538],[14.4592,-22.9953],[14.5293,-22.9002],[14.5086,-22.548],[14.2914,-22.1345],[13.9523,-21.7839],[13.9627,-21.714],[13.8779,-21.5922],[13.8317,-21.4565],[13.3976,-20.8493],[13.1777,-20.1892],[13.0373,-20.0595],[13.0054,-19.9355],[12.7046,-19.4108],[12.5674,-19.1023],[12.4704,-18.9977],[12.45,-18.9046],[12.2869,-18.6977],[12.0319,-18.5053],[11.9373,-18.2321],[11.8336,-18.098],[11.7176,-17.5463],[11.7661,-17.2527],[11.7681,-16.7683],[11.8037,-16.824],[11.8231,-16.679],[11.7791,-16.0999],[11.807,-16.0188],[11.7366,-15.9002],[11.7518,-15.7991],[11.8049,-15.7692],[11.8442,-15.7936],[11.8947,-15.7467],[11.9102,-15.6762],[11.992,-15.6173],[12.0404,-15.4633],[12.0564,-15.2331],[12.105,-15.1728],[12.1453,-15.1686],[12.115,-15.0939],[12.2078,-14.8333],[12.2727,-14.7506],[12.3313,-14.4335],[12.3454,-14.303],[12.3142,-14.1822],[12.3558,-14.1423],[12.3288,-14.0922],[12.4155,-13.8786],[12.5025,-13.8552],[12.5221,-13.4106],[12.6345,-13.3434],[12.6565,-13.2556],[12.7615,-13.193],[12.9448,-12.9824],[12.9395,-12.8167],[13.1786,-12.6017],[13.3929,-12.5704],[13.4692,-12.4948],[13.5056,-12.3714],[13.6398,-12.2487],[13.7922,-11.7909],[13.7819,-11.4811],[13.8485,-10.9821],[13.7315,-10.7643],[13.765,-10.662],[13.5276,-10.4065],[13.509,-10.277],[13.3174,-9.9763],[13.3272,-9.886],[13.1912,-9.69],[13.2254,-9.6313],[13.1665,-9.3871],[12.9963,-9.0938],[12.9924,-9.038],[13.0864,-8.8923],[13.1366,-8.871],[13.0428,-8.9625],[13.013,-9.0838],[13.0869,-8.9597],[13.1375,-8.9409],[13.1946,-8.8061],[13.2241,-8.7739],[13.2595,-8.7548],[13.198,-8.8232],[13.2871,-8.756],[13.3801,-8.7551],[13.4109,-8.652],[13.3421,-8.4675],[13.3799,-8.4538],[13.3789,-8.3471],[13.2649,-8.1697],[12.9115,-7.3351],[12.85,-7.2659],[12.8335,-6.9123],[12.7796,-6.9147],[12.6204,-6.7348],[12.2751,-6.1148],[12.3336,-6.0784],[12.3248,-6.1224],[12.4969,-6.0946],[12.6455,-6.029],[12.8174,-6.0317],[12.9276,-5.9812],[12.9859,-5.9011],[13.1843,-5.8562],[12.8587,-5.8195],[12.7665,-5.8653],[12.7175,-5.9313],[12.7226,-5.9793],[12.672,-6.0001],[12.4495,-6.0519],[12.4572,-5.9818],[12.3966,-6.006],[12.1618,-5.6812],[12.1472,-5.6179],[12.2322,-5.4796],[12.1246,-5.1848],[12.0231,-5.046],[12.1005,-5.08],[12.1325,-5.0059],[12.0979,-5.054],[12.0796,-5.0202],[11.9943,-5.0058],[11.8202,-4.7848],[11.8484,-4.786],[11.8504,-4.7528],[11.7769,-4.6679],[11.8202,-4.6373],[11.8064,-4.5771],[11.4014,-4.2214],[11.3582,-4.1119],[11.0702,-3.9088],[11.0213,-3.8578],[10.9638,-3.6915],[10.6464,-3.4519],[10.6354,-3.3137],[10.347,-3.0445],[9.9024,-2.7004],[9.7035,-2.443],[9.7949,-2.5009],[9.8401,-2.4567],[9.8503,-2.5284],[9.9178,-2.55],[9.9363,-2.5945],[9.9705,-2.5803],[9.9773,-2.6287],[10.1566,-2.5729],[10.1375,-2.5274],[10.0735,-2.4915],[10.0798,-2.5582],[10.0083,-2.5051],[9.9841,-2.5603],[9.9553,-2.5152],[9.9915,-2.4915],[9.9089,-2.4704],[9.8745,-2.4094],[9.752,-2.4704],[9.7178,-2.3748],[9.7035,-2.4357],[9.6198,-2.3818],[9.5658,-2.1926],[9.2713,-1.8766],[9.3597,-1.9147],[9.3807,-1.8883],[9.3779,-1.9318],[9.4673,-1.9225],[9.4566,-1.9776],[9.5081,-2.0016],[9.5432,-2.0709],[9.5637,-2.0317],[9.4981,-1.9571],[9.5178,-1.9264],[9.4666,-1.8513],[9.436,-1.8473],[9.436,-1.8883],[9.3745,-1.8193],[9.3405,-1.8883],[9.2922,-1.8261],[9.2554,-1.8352],[9.2201,-1.5798],[9.0166,-1.3159],[8.9836,-1.2309],[9.0194,-1.3048],[9.0823,-1.3435],[9.1592,-1.468],[9.2647,-1.5353],[9.2803,-1.6751],[9.2975,-1.6345],[9.3125,-1.6555],[9.402,-1.6144],[9.4155,-1.6697],[9.4155,-1.6076],[9.5596,-1.6076],[9.5025,-1.5798],[9.4844,-1.4841],[9.4566,-1.4705],[9.3791,-1.5629],[9.2866,-1.5661],[9.2485,-1.482],[9.2971,-1.4577],[9.2853,-1.4158],[9.3342,-1.3986],[9.3355,-1.2834],[9.3229,-1.3709],[9.2783,-1.3606],[9.1857,-1.4106],[9.1465,-1.3323],[9.1071,-1.3464],[9.03,-1.2991],[9.0331,-1.1935],[8.9972,-1.1552],[8.9942,-1.2204],[8.9666,-1.1044],[8.8674,-0.977],[8.9077,-1.0086],[8.9357,-0.9635],[8.8775,-0.9737],[8.8396,-0.9225],[8.6956,-0.5866],[8.7092,-0.5656],[8.7723,-0.6332],[8.8444,-0.8002],[8.8661,-0.7195],[8.9146,-0.7232],[8.888,-0.6816],[8.929,-0.6873],[9.0046,-0.8051],[9.0115,-0.8746],[9.052,-0.7106],[9.0891,-0.6599],[9.1145,-0.6816],[9.1008,-0.5997],[9.3065,-0.3323],[9.3553,0.0162],[9.2988,0.2835],[9.3454,0.3558],[9.3787,0.3076],[9.3602,0.1811],[9.4243,0.2082],[9.488,0.0983],[9.5042,0.188],[9.5664,0.1675],[9.5868,0.1123],[9.6284,0.1538],[9.7124,0.1348],[9.8122,0.0235],[9.7586,0.1256],[9.8196,0.1191],[9.9089,0.188],[10.0256,0.188],[9.9363,0.216],[9.7922,0.1811],[9.669,0.2272],[9.5664,0.3183],[9.4981,0.291],[9.3987,0.4887],[9.3057,0.5443],[9.3159,0.6262],[9.5391,0.6815],[9.5593,0.6215],[9.4778,0.6191],[9.464,0.5989],[9.5164,0.6042],[9.5459,0.5648],[9.5733,0.5989],[9.5733,0.5101],[9.6079,0.4692],[9.6421,0.5989],[9.5664,0.9831],[9.6688,1.0582],[9.7451,1.0597],[9.7922,0.9688],[9.7991,1.0582],[9.8475,1.0725],[9.7035,1.0998],[9.7178,1.1333],[9.5843,1.043],[9.5408,1.1251],[9.4053,1.1059],[9.3467,1.1817],[9.4483,1.3191],[9.4653,1.4145],[9.5527,1.4865],[9.5942,1.5722],[9.6859,1.5688],[9.7445,1.6],[9.6657,1.5756],[9.6073,1.6444],[9.8097,1.935],[9.7655,2.0854],[9.7669,2.3105],[9.8192,2.3769],[9.8778,2.8814],[9.958,3.0822],[9.9021,3.2517],[9.9295,3.2716],[9.6421,3.539],[9.8196,3.6279],[9.6262,3.6],[9.6421,3.6347],[9.5459,3.8196],[9.6243,3.7502],[9.6626,3.7507],[9.5892,3.8096],[9.6211,3.8748],[9.7445,3.8196],[9.752,3.8606],[9.6763,3.909],[9.7644,3.9575],[9.6189,3.9604],[9.7546,4.1357],[9.5794,4.013],[9.5266,4.0358],[9.4785,4.1114],[9.4504,4.0803],[9.5325,3.9894],[9.4971,3.9777],[9.4292,4.0266],[9.464,3.91],[9.3137,3.9309],[9.3262,4.0319],[9.2503,3.9608],[9.2107,3.9643],[9.1965,4.0189],[9.1234,4.0179],[8.9712,4.1008],[8.991,4.2175],[8.919,4.3181],[8.8948,4.4605],[8.9357,4.5533],[8.9006,4.5216],[8.9016,4.5874],[8.8396,4.6426],[8.8678,4.5446],[8.7986,4.6011],[8.7996,4.5422],[8.7686,4.5531],[8.7241,4.5805],[8.6551,4.7383],[8.6454,4.6841],[8.7227,4.5131],[8.5767,4.4919],[8.5938,4.5328],[8.5706,4.5386],[8.5256,4.5117],[8.5051,4.5509],[8.5521,4.6147],[8.5257,4.6044],[8.5137,4.6423],[8.5733,4.7041],[8.5925,4.8202],[8.5492,4.8042],[8.5298,4.7089],[8.469,4.7117],[8.4802,4.7525],[8.4092,4.7493],[8.4219,4.8475],[8.3584,4.7973],[8.1817,4.9914],[8.2697,4.8687],[8.2573,4.8345],[8.3535,4.6489],[8.2886,4.5486],[8.032,4.5588],[7.7424,4.5263],[7.7229,4.5117],[7.7571,4.5049],[7.7031,4.4975],[7.5584,4.5253],[7.5296,4.6389],[7.5448,4.711],[7.502,4.5727],[7.4324,4.5554],[7.281,4.6011],[7.2712,4.56],[7.3333,4.5294],[7.281,4.5049],[7.1904,4.6116],[7.1789,4.6688],[7.1331,4.6632],[7.0718,4.7581],[7.0576,4.7309],[7.0979,4.6618],[7.1697,4.6059],[7.1475,4.56],[7.1782,4.5015],[7.1128,4.4509],[7.0786,4.5049],[7.0786,4.4434],[7.044,4.4366],[7.0022,4.5799],[7.0233,4.6489],[7.044,4.6426],[7.0036,4.7178],[6.9785,4.6924],[6.9627,4.7309],[6.9893,4.6079],[6.9026,4.6669],[6.9285,4.5738],[6.9831,4.5769],[6.9756,4.4844],[7.0221,4.3885],[6.8801,4.3882],[6.8186,4.5427],[6.8455,4.6286],[6.8032,4.6498],[6.7702,4.7451],[6.7853,4.817],[6.7156,4.8345],[6.7722,4.663],[6.8255,4.6011],[6.7962,4.5597],[6.8708,4.3608],[6.7156,4.3547],[6.7361,4.6079],[6.6951,4.4229],[6.6746,4.5328],[6.6541,4.5117],[6.6877,4.3366],[6.6126,4.3367],[6.5808,4.5079],[6.5505,4.5049],[6.5884,4.4477],[6.5696,4.3349],[6.4343,4.3472],[6.2705,4.2926],[6.2468,4.3205],[6.3325,4.4366],[6.263,4.3957],[6.2425,4.498],[6.2494,4.4099],[6.2017,4.4434],[6.2302,4.388],[6.1947,4.3142],[6.2171,4.2906],[6.0967,4.2781],[6.1053,4.3746],[6.0554,4.4199],[6.0618,4.2952],[5.9969,4.3194],[5.9886,4.4161],[5.9751,4.382],[5.9546,4.3957],[5.9728,4.3448],[5.9463,4.3352],[5.8675,4.3873],[5.8659,4.4366],[5.8391,4.4161],[5.7824,4.456],[5.5669,4.6752],[5.5715,4.7296],[5.4754,4.8475],[5.5095,4.8271],[5.386,5.1256],[5.4338,5.1361],[5.4754,5.0945],[5.4543,5.1491],[5.4959,5.1423],[5.4509,5.1901],[5.4443,5.1635],[5.3656,5.1635],[5.3457,5.3572],[5.4543,5.3688],[5.468,5.3409],[5.5296,5.3864],[5.5779,5.382],[5.5339,5.4764],[5.614,5.505],[5.6399,5.5402],[5.5171,5.4986],[5.4849,5.4115],[5.4236,5.4365],[5.4338,5.3956],[5.376,5.3988],[5.2632,5.4365],[5.198,5.5015],[5.1912,5.5539],[5.2302,5.5825],[5.3928,5.5606],[5.44,5.6277],[5.5029,5.5818],[5.5021,5.6173],[5.4285,5.6558],[5.396,5.6059],[5.326,5.6054],[5.3314,5.7246],[5.2803,5.6175],[5.1797,5.5826],[5.0886,5.7087],[5.1027,5.7932],[5.154,5.7792],[5.154,5.8145],[5.2904,5.9101],[5.0447,5.7675],[4.8859,6.0065],[4.7478,6.1389],[4.4055,6.3589],[3.8703,6.4316],[3.4436,6.4103],[3.3849,6.4445],[3.4285,6.4587],[3.4402,6.4234],[3.4754,6.4556],[3.5414,6.4548],[3.5708,6.5093],[3.7002,6.5271],[3.7622,6.5851],[3.8579,6.6022],[3.7737,6.6224],[3.5283,6.5278],[3.4785,6.5414],[3.4812,6.6022],[3.4024,6.5522],[3.3698,6.45],[3.3845,6.3977],[2.307,6.3315],[1.8845,6.2748],[1.271,6.1337],[1.1331,6.0736],[1.048,5.9927],[0.9548,5.7911],[0.7235,5.7554],[0.3649,5.7815],[0.2433,5.7562],[-0.0686,5.5812],[-0.3716,5.4927],[-0.4716,5.3908],[-0.6378,5.3409],[-0.7995,5.2148],[-0.9971,5.2168],[-1.2336,5.1007],[-1.6185,5.0224],[-1.634,4.9744],[-1.7486,4.8772],[-1.9121,4.8209],[-1.9814,4.7524],[-2.0966,4.7385],[-2.2528,4.8791],[-2.3566,4.9196],[-3.2764,5.1181],[-3.2341,5.1635],[-3.1317,5.1081],[-3.0161,5.1144],[-2.9709,5.0809],[-2.8437,5.1491],[-2.8794,5.1813],[-2.9467,5.1771],[-2.9435,5.1368],[-2.9778,5.115],[-3.0628,5.1566],[-3.1391,5.1423],[-3.2051,5.2187],[-3.1279,5.3249],[-3.1344,5.3668],[-3.2621,5.3409],[-3.2469,5.2976],[-3.2894,5.2522],[-3.241,5.2317],[-3.3207,5.1935],[-3.2758,5.1491],[-3.3122,5.1199],[-3.7101,5.1861],[-3.7214,5.2385],[-3.748,5.1901],[-3.8275,5.1976],[-4.0019,5.2665],[-3.9623,5.2624],[-3.933,5.2869],[-3.9029,5.259],[-3.8995,5.2869],[-3.7754,5.2448],[-3.7822,5.2665],[-3.7289,5.2665],[-3.7157,5.2823],[-3.7589,5.3662],[-3.8049,5.376],[-3.744,5.274],[-3.892,5.3136],[-3.9063,5.3484],[-3.921,5.3162],[-4.0093,5.3136],[-3.9405,5.2932],[-3.9891,5.2691],[-4.1255,5.3074],[-4.241,5.2839],[-4.2746,5.3124],[-4.3214,5.311],[-4.3513,5.2727],[-4.4635,5.2982],[-4.4817,5.2727],[-4.4537,5.259],[-4.5438,5.2665],[-4.5636,5.3],[-4.5575,5.2665],[-4.6872,5.2317],[-4.7145,5.2522],[-4.6673,5.2522],[-4.6735,5.3136],[-4.7493,5.2727],[-4.7222,5.2523],[-4.8086,5.1805],[-4.7477,5.1723],[-4.7047,5.2113],[-4.5596,5.197],[-4.5364,5.2044],[-4.571,5.218],[-4.5301,5.2317],[-4.4081,5.2236],[-4.3856,5.2522],[-4.1838,5.2802],[-4.0605,5.2834],[-3.9958,5.2317],[-4.6205,5.1807],[-4.8926,5.1286],[-4.982,5.1361],[-5.0098,5.2161],[-5.1123,5.1833],[-5.1579,5.2122],[-5.3215,5.2302],[-5.3383,5.1976],[-5.2974,5.1901],[-5.3383,5.1833],[-5.3594,5.1286],[-5.4004,5.1771],[-5.399,5.142],[-5.3579,5.1235],[-5.3088,5.1181],[-5.2694,5.1286],[-5.3383,5.1491],[-5.2831,5.1771],[-5.1869,5.1643],[-5.2284,5.2044],[-5.1208,5.167],[-5.0332,5.1833],[-5.0024,5.1286],[-5.4957,5.0953],[-5.5505,5.115],[-5.5784,5.0945],[-5.5505,5.0877],[-5.6302,5.0632],[-5.8513,5.03],[-6.6268,4.7246],[-6.9031,4.662],[-7.0582,4.539],[-7.2328,4.4933],[-7.4568,4.3441],[-7.7127,4.3615],[-7.942,4.5049],[-8.2573,4.58],[-8.3002,4.6273],[-9.105,5.0316],[-9.3541,5.2112],[-9.4708,5.3205],[-9.508,5.3996],[-9.5937,5.4303],[-9.597,5.4883],[-9.9796,5.7981],[-10.0462,5.8617],[-10.0555,5.9118],[-10.3537,6.1024],[-10.3615,6.1292],[-10.3336,6.1361],[-10.4447,6.2038],[-10.4639,6.1975],[-10.3894,6.1522],[-10.3819,6.1292],[-10.7883,6.293],[-10.8079,6.3109],[-10.7724,6.3074],[-10.7923,6.359],[-10.7594,6.4042],[-10.8004,6.3899],[-10.8959,6.499],[-11.3532,6.7012],[-11.3819,6.8368],[-11.588,6.9789],[-11.5675,6.9926],[-11.6221,6.9858],[-11.8396,7.149],[-12.5066,7.3898],[-12.4396,7.4165],[-12.3695,7.3898],[-12.4892,7.4451],[-12.4283,7.5336],[-12.2951,7.5331],[-12.1838,7.6027],[-12.2563,7.6052],[-12.4036,7.5475],[-12.4637,7.562],[-12.4855,7.6505],[-12.5196,7.6301],[-12.5439,7.6536],[-12.452,7.7741],[-12.4722,7.7877],[-12.6019,7.6838],[-12.7012,7.7081],[-12.7781,7.7558],[-12.7875,7.8046],[-12.7598,7.8218],[-12.8287,7.7983],[-12.9591,7.9112],[-12.8867,7.9385],[-12.8213,7.9174],[-12.8884,7.9753],[-12.9118,8.0307],[-12.8759,8.103],[-12.9811,8.1862],[-12.9721,8.2539],[-13.1639,8.1713],[-13.1639,8.2744],[-13.2868,8.4245],[-13.2868,8.5002],[-13.193,8.4878],[-13.1444,8.4312],[-13.0336,8.3767],[-13.1256,8.449],[-13.1161,8.473],[-13.0267,8.5207],[-13.0131,8.5617],[-12.8697,8.5692],[-12.9311,8.5828],[-12.8759,8.6852],[-12.9364,8.607],[-13.0618,8.5832],[-13.0888,8.6027],[-13.0267,8.6511],[-13.0541,8.6647],[-13.0819,8.6169],[-13.1577,8.671],[-13.1075,8.581],[-13.1441,8.5174],[-13.1685,8.5252],[-13.2412,8.6722],[-13.2402,8.8258],[-13.2009,8.8598],[-12.9857,8.8571],[-13.1577,8.8845],[-13.0751,8.9391],[-13.181,8.923],[-13.2884,8.9695],[-13.3222,9.0831],[-13.2431,9.1697],[-13.1577,9.1855],[-13.2595,9.1964],[-13.2328,9.2674],[-13.2806,9.165],[-13.3153,9.1821],[-13.3253,9.311],[-13.3011,9.3568],[-13.3529,9.3388],[-13.3745,9.2728],[-13.4078,9.287],[-13.432,9.3711],[-13.3966,9.4394],[-13.4654,9.4182],[-13.514,9.4496],[-13.4867,9.5691],[-13.5475,9.5002],[-13.5884,9.5691],[-13.7262,9.5111],[-13.6258,9.6473],[-13.6232,9.7274],[-13.5611,9.7882],[-13.5943,9.7742],[-13.6512,9.8428],[-13.6613,9.7545],[-13.7289,9.7441],[-13.7498,9.7999],[-13.6853,9.9465],[-13.7497,9.8635],[-13.8277,9.8554],[-14.0583,10.0253],[-14.0461,10.0795],[-13.9938,10.0762],[-14.0683,10.1181],[-13.9999,10.1997],[-14.0893,10.1383],[-14.0923,10.0686],[-14.1303,10.0489],[-14.1798,10.0903],[-14.1236,10.1626],[-14.1378,10.1792],[-14.2224,10.1061],[-14.2439,10.1823],[-14.2701,10.1597],[-14.3627,10.2312],[-14.4626,10.2252],[-14.463,10.33],[-14.548,10.4256],[-14.535,10.5082],[-14.6135,10.4734],[-14.6578,10.4796],[-14.6647,10.5116],[-14.6505,10.5703],[-14.5964,10.6037],[-14.6287,10.6173],[-14.6152,10.6913],[-14.5685,10.731],[-14.5002,10.8911],[-14.6861,10.6482],[-14.7037,10.6708],[-14.6783,10.6931],[-14.7194,10.6994],[-14.6514,10.81],[-14.7603,10.6994],[-14.7928,10.745],[-14.7405,10.8719],[-14.8087,10.8235],[-14.8168,10.9272],[-14.6647,11.0358],[-14.6852,11.0637],[-14.7415,10.9891],[-14.8013,10.9805],[-14.8107,11.0145],[-14.8435,10.9675],[-14.9186,11.029],[-14.9111,10.96],[-14.9596,10.9805],[-14.9111,10.9259],[-14.9801,10.875],[-14.9596,10.7683],[-15.0316,10.7928],[-15.0795,10.8587],[-15.0148,10.96],[-15.0852,10.9276]],[[35.4292,22.9783],[35.2121,22.7863],[35.6211,23.1393],[35.4292,22.9783]],[[33.7173,21.7309],[33.5584,21.711],[33.8665,21.7497],[33.7173,21.7309]],[[34.8282,22.6069],[34.862,22.6802],[34.7776,22.4998],[34.8282,22.6069]],[[34.4228,22.2492],[34.1475,22.1919],[34.6821,22.2979],[34.4228,22.2492]]],[[[-16.1655,11.8712],[-15.9949,11.8991],[-15.9891,11.8615],[-16.0414,11.7551],[-16.0836,11.7551],[-16.1548,11.8078],[-16.1655,11.8712]]],[[[-24.7044,14.814],[-24.7589,14.8319],[-24.7589,14.8666],[-24.7043,14.9008],[-24.6833,14.8425],[-24.7044,14.814]]],[[[-24.3765,14.816],[-24.4491,14.8381],[-24.5262,14.9247],[-24.4889,14.9905],[-24.3649,15.0454],[-24.3201,15.013],[-24.2928,14.8729],[-24.3765,14.816]]],[[[-23.4431,15.0107],[-23.494,14.9187],[-23.5393,14.9076],[-23.6765,14.9355],[-23.7305,14.9858],[-23.7926,15.0858],[-23.7516,15.2335],[-23.7795,15.3117],[-23.7516,15.3328],[-23.7032,15.3135],[-23.6973,15.266],[-23.5114,15.1273],[-23.4431,15.0107]]],[[[-23.1328,15.1447],[-23.1827,15.1186],[-23.2582,15.1745],[-23.2457,15.2711],[-23.1898,15.3328],[-23.1219,15.2991],[-23.1328,15.1447]]],[[[-22.6798,16.0632],[-22.8061,15.9859],[-22.9455,16.0197],[-22.9632,16.0712],[-22.9136,16.1256],[-22.9156,16.244],[-22.8525,16.2066],[-22.7938,16.2313],[-22.7139,16.2058],[-22.6825,16.1686],[-22.6798,16.0632]]],[[[-24.0328,16.5624],[-24.2723,16.5872],[-24.3247,16.4827],[-24.3709,16.5871],[-24.4307,16.6395],[-24.3542,16.6806],[-24.2928,16.6418],[-24.09,16.6225],[-24.0328,16.5968],[-24.0328,16.5624]]],[[[-24.5927,16.6243],[-24.5753,16.6055],[-24.6042,16.6214],[-24.5927,16.6243]]],[[[-22.9818,16.7035],[-22.9908,16.8157],[-22.9224,16.8603],[-22.8813,16.6927],[-22.8951,16.6139],[-22.9292,16.5934],[-22.9414,16.6694],[-22.9818,16.7035]]],[[[-24.6852,16.7429],[-24.7402,16.7343],[-24.788,16.7892],[-24.7489,16.7936],[-24.6852,16.7429]]],[[[-24.8736,16.8359],[-24.988,16.7851],[-25.0941,16.8262],[-24.9781,16.923],[-24.9277,16.9178],[-24.8736,16.8359]]],[[[-25.1879,16.9282],[-25.3108,16.9261],[-25.3139,17.005],[-25.3604,17.0552],[-25.3168,17.1061],[-25.1026,17.1966],[-25.0395,17.1824],[-24.975,17.1145],[-25.0151,17.0491],[-25.1879,16.9282]]],[[[-16.3945,19.5999],[-16.3586,19.6774],[-16.3096,19.7308],[-16.3016,19.7226],[-16.3945,19.5999]]],[[[-16.4842,19.6777],[-16.4911,19.7251],[-16.4696,19.73],[-16.4842,19.6777]]],[[[-16.4325,19.6013],[-16.464,19.6846],[-16.4263,19.7869],[-16.3459,19.8684],[-16.3923,19.6584],[-16.4325,19.6013]]],[[[-16.4673,20.5762],[-16.4464,20.6073],[-16.4542,20.5711],[-16.4673,20.5762]]],[[[11.6714,-16.5297],[11.7197,-16.5061],[11.7385,-16.7058],[11.702,-16.6557],[11.6714,-16.5297]]],[[[5.6463,-1.4384],[5.612,-1.4636],[5.6331,-1.4158],[5.6463,-1.4384]]],[[[8.9929,-0.7612],[8.9495,-0.6506],[9.0046,-0.5929],[9.0387,-0.7437],[8.9929,-0.7612]]],[[[6.7565,0.2501],[6.66,0.1073],[6.5784,0.0781],[6.5573,0.0283],[6.5164,0.0336],[6.4617,0.2222],[6.5331,0.3481],[6.6814,0.4071],[6.7461,0.3381],[6.7565,0.2501]]],[[[9.3841,0.8096],[9.3796,0.807],[9.3768,0.81],[9.3841,0.8096]]],[[[7.4618,1.6308],[7.4014,1.5312],[7.3325,1.5653],[7.3301,1.6147],[7.3853,1.6923],[7.4597,1.6883],[7.4287,1.6479],[7.4618,1.6308]]],[[[8.9631,3.6797],[8.6862,3.1973],[8.4502,3.2729],[8.422,3.3393],[8.4421,3.4213],[8.4739,3.4631],[8.5796,3.4633],[8.641,3.6835],[8.7024,3.7609],[8.9227,3.7507],[8.9631,3.6797]]],[[[7.3078,4.4245],[7.1817,4.382],[7.138,4.397],[7.2295,4.5328],[7.2586,4.4975],[7.3325,4.4919],[7.3078,4.4245]]],[[[7.5845,4.4846],[7.4318,4.4348],[7.3369,4.4601],[7.4046,4.498],[7.4696,4.4714],[7.5845,4.4846]]],[[[11.0603,33.8007],[10.8878,33.6401],[10.8262,33.7298],[10.7634,33.7002],[10.7278,33.7582],[10.736,33.8848],[10.9299,33.8963],[11.0603,33.8007]]],[[[11.1013,34.671],[11.0365,34.6243],[10.9641,34.6567],[11.1013,34.671]]],[[[11.1307,34.6633],[11.173,34.758],[11.2221,34.7476],[11.2543,34.8258],[11.2995,34.8142],[11.2658,34.7734],[11.297,34.7287],[11.1307,34.6633]]],[[[32.9645,-26.038],[32.9136,-26.0304],[32.9067,-26.0578],[32.8954,-26.0284],[32.9826,-25.969],[32.9645,-26.038]]],[[[12.9946,-5.8682],[12.7832,-5.9606],[12.7451,-5.9402],[12.8282,-5.8718],[12.9946,-5.8682]]],[[[33.9551,26.79],[33.9955,26.7517],[34.0036,26.7082],[33.9551,26.79]]],[[[34.0513,27.4486],[33.9136,27.5237],[34.0285,27.502],[34.0513,27.4486]]],[[[34.6618,27.9302],[34.7319,27.9571],[34.7322,27.9189],[34.6618,27.9302]]],[[[34.4944,27.9882],[34.5348,28.0082],[34.5032,27.9756],[34.5749,27.9721],[34.6205,27.9204],[34.5181,27.9304],[34.4944,27.9882]]],[[[32.9697,31.0866],[32.987,31.0836],[32.9893,31.0734],[32.9697,31.0866]]],[[[33.3011,31.2159],[33.4759,31.1417],[33.2698,31.2168],[33.3011,31.2159]]],[[[33.1026,31.2268],[32.9347,31.1479],[32.9465,31.1633],[33.1047,31.2403],[33.2625,31.2236],[33.1026,31.2268]]],[[[37.8958,-46.8899],[37.8065,-46.9658],[37.6188,-46.9544],[37.5754,-46.9035],[37.6624,-46.8285],[37.7285,-46.8253],[37.8958,-46.8899]]],[[[37.8911,-46.6497],[37.8649,-46.6142],[37.9778,-46.6157],[37.9764,-46.6447],[37.8911,-46.6497]]],[[[35.4349,-21.7829],[35.4375,-21.6729],[35.49,-21.5302],[35.4907,-21.6419],[35.4349,-21.7829]]],[[[44.4578,-20.0236],[44.4719,-19.8795],[44.3709,-19.774],[44.4097,-19.7014],[44.405,-19.6101],[44.4837,-19.5232],[44.4797,-19.484],[44.4447,-19.3858],[44.2344,-19.0888],[44.2573,-18.8039],[44.1859,-18.6108],[44.0497,-18.4265],[44.001,-17.9379],[44.0357,-17.7695],[43.9236,-17.5776],[43.9431,-17.4557],[44.0121,-17.3341],[44.4307,-16.7004],[44.4118,-16.573],[44.4556,-16.5409],[44.4629,-16.4854],[44.3982,-16.3404],[44.4447,-16.1957],[44.7821,-16.1909],[44.8683,-16.2209],[45.0402,-16.1181],[45.1387,-15.9909],[45.2664,-15.9239],[45.2979,-16.112],[45.4063,-16.0549],[45.3794,-15.9738],[45.5701,-15.943],[45.6047,-16.0519],[45.6463,-15.8912],[45.6214,-15.8508],[45.6609,-15.8038],[45.7043,-15.7825],[45.802,-15.8166],[45.9486,-15.7742],[45.9588,-15.8399],[46.0661,-15.8619],[46.071,-15.7786],[46.0099,-15.8144],[46.0158,-15.7922],[46.1442,-15.7037],[46.2355,-15.7175],[46.249,-15.7581],[46.2074,-15.8195],[46.3311,-15.9772],[46.3379,-15.9362],[46.3849,-15.9592],[46.3856,-15.9021],[46.4688,-15.9567],[46.4443,-15.881],[46.299,-15.8157],[46.3556,-15.7325],[46.3037,-15.7102],[46.3327,-15.6301],[46.4824,-15.4911],[46.4886,-15.5117],[46.6047,-15.4242],[46.6804,-15.4155],[46.6433,-15.378],[46.9495,-15.1984],[46.9973,-15.2822],[47.0747,-15.324],[46.9583,-15.5496],[46.9972,-15.4947],[47.2321,-15.4333],[47.1655,-15.2957],[47.1118,-15.3062],[47.1199,-15.2579],[47.0879,-15.2547],[47.0559,-15.1936],[47.2057,-15.0466],[47.2414,-14.9697],[47.3718,-14.8906],[47.3683,-14.8466],[47.3086,-14.8752],[47.2837,-14.8469],[47.4448,-14.6716],[47.4961,-14.7116],[47.5171,-14.8196],[47.4207,-14.9656],[47.4277,-15.1076],[47.5625,-14.985],[47.6519,-14.7589],[47.7971,-14.5663],[47.9144,-14.662],[47.9207,-14.7097],[47.9144,-14.6408],[47.9686,-14.6222],[48.0003,-14.7623],[48.013,-14.6301],[47.926,-14.5665],[47.84,-14.5914],[47.8039,-14.5456],[47.7529,-14.6005],[47.7015,-14.4464],[47.7219,-14.3381],[47.7909,-14.2232],[47.861,-14.2488],[47.9435,-14.2325],[47.9201,-14.086],[48.0137,-14.1406],[47.9828,-14.3254],[48.0339,-14.2624],[48.0105,-14.2096],[48.0482,-14.0841],[47.9411,-14.0041],[48.0171,-13.9528],[47.9175,-13.8976],[47.8758,-13.7843],[47.8838,-13.7284],[47.9275,-13.7092],[47.8952,-13.679],[47.9043,-13.6032],[47.953,-13.5903],[47.9849,-13.5068],[48.0153,-13.5802],[48.051,-13.5441],[48.0313,-13.5172],[48.0684,-13.5173],[48.0994,-13.5994],[48.1424,-13.5954],[48.1924,-13.7669],[48.2704,-13.8054],[48.3412,-13.7555],[48.332,-13.6614],[48.3595,-13.5994],[48.3333,-13.5463],[48.3936,-13.5857],[48.4276,-13.5242],[48.4898,-13.497],[48.5342,-13.5208],[48.4823,-13.3604],[48.605,-13.4455],[48.7109,-13.4323],[48.7801,-13.3839],[48.8392,-13.2604],[48.8187,-13.1764],[48.8435,-13.0808],[48.9417,-12.9284],[48.9553,-12.8117],[48.8659,-12.6472],[48.887,-12.5646],[48.8392,-12.5646],[48.7737,-12.4352],[48.73,-12.435],[48.7596,-12.3981],[48.8527,-12.4138],[48.9041,-12.4889],[48.9458,-12.4799],[48.9846,-12.3334],[49.0652,-12.2773],[49.0799,-12.2952],[49.1198,-12.2426],[49.1512,-12.2507],[49.1614,-12.1817],[49.2015,-12.1467],[49.093,-12.0986],[49.1614,-12.0507],[49.2234,-12.1061],[49.1819,-12.0439],[49.2425,-11.9537],[49.2781,-11.9477],[49.3491,-12.0662],[49.3731,-12.1982],[49.3294,-12.1572],[49.2849,-12.1784],[49.2638,-12.1402],[49.2297,-12.2221],[49.2918,-12.2394],[49.2815,-12.2848],[49.3071,-12.2551],[49.3494,-12.2985],[49.3814,-12.2228],[49.4562,-12.3735],[49.4966,-12.3461],[49.5394,-12.3782],[49.5381,-12.407],[49.4904,-12.407],[49.5277,-12.4426],[49.5586,-12.4207],[49.5864,-12.482],[49.5625,-12.6279],[49.6533,-12.6948],[49.6753,-12.7571],[49.6548,-12.8049],[49.7442,-12.7434],[49.8049,-12.8049],[49.8147,-12.8658],[49.8738,-12.8884],[49.8526,-12.9244],[49.9421,-13.0339],[49.9421,-13.2195],[49.9769,-13.3461],[50.0329,-13.3605],[50.0405,-13.497],[50.1429,-13.7831],[50.1642,-14.2231],[50.2129,-14.2872],[50.1892,-14.4391],[50.2409,-14.706],[50.2097,-14.7507],[50.2653,-14.7978],[50.3552,-15.0331],[50.49,-15.2195],[50.4834,-15.4435],[50.3368,-15.8113],[50.2302,-15.971],[50.1681,-15.9846],[50.148,-15.9353],[50.0389,-15.8595],[50.0247,-15.7712],[49.9702,-15.718],[49.9758,-15.6266],[49.9056,-15.5616],[49.9011,-15.4223],[49.7178,-15.4467],[49.6384,-15.5446],[49.648,-15.683],[49.7337,-15.9057],[49.6836,-16.0203],[49.6898,-16.0868],[49.7288,-16.1394],[49.8228,-16.1799],[49.8499,-16.2408],[49.8269,-16.3733],[49.8631,-16.4445],[49.854,-16.5396],[49.7232,-16.7081],[49.7249,-16.754],[49.7683,-16.8156],[49.8403,-16.8276],[49.6084,-16.8966],[49.4313,-17.2839],[49.4214,-17.3552],[49.5096,-17.7277],[49.4139,-18.0671],[49.4408,-18.1542],[49.3841,-18.2255],[49.3592,-18.424],[49.0769,-19.0656],[48.8596,-19.6847],[48.7914,-19.9931],[48.7505,-19.9658],[48.7817,-20.0372],[48.5623,-20.5771],[48.4302,-20.9792],[48.4556,-21.0141],[48.3567,-21.3537],[48.2018,-21.7962],[47.9006,-22.4811],[47.8338,-22.901],[47.738,-23.2555],[47.6195,-23.5906],[47.5965,-23.5632],[47.575,-23.5987],[47.6201,-23.6404],[47.5687,-23.8526],[47.4968,-24.0164],[47.4485,-24.0451],[47.3708,-24.2701],[47.3247,-24.2696],[47.3123,-24.4859],[47.1941,-24.7783],[47.1289,-24.8449],[47.1262,-24.9343],[47.1056,-24.8792],[47.0872,-24.9684],[46.9647,-25.0657],[46.9266,-25.0437],[46.7698,-25.1535],[46.6537,-25.1839],[46.3866,-25.1648],[46.2376,-25.1982],[45.9141,-25.3373],[45.5612,-25.56],[45.4922,-25.5737],[45.1455,-25.5954],[45.1182,-25.5296],[44.981,-25.4719],[44.8347,-25.344],[44.7278,-25.3036],[44.3695,-25.2568],[44.2964,-25.1535],[44.384,-25.2209],[44.405,-25.1882],[44.0288,-24.999],[44.001,-24.8654],[43.9183,-24.742],[43.9183,-24.6191],[43.8399,-24.5058],[43.7067,-24.4062],[43.6729,-24.3349],[43.6652,-23.8786],[43.6248,-23.7619],[43.6416,-23.6389],[43.7483,-23.5701],[43.7346,-23.5092],[43.7612,-23.4638],[43.631,-23.3448],[43.5832,-23.0759],[43.3726,-22.8648],[43.2849,-22.5875],[43.278,-22.4259],[43.2229,-22.2548],[43.2468,-22.2184],[43.3018,-22.2188],[43.2952,-22.1661],[43.2609,-22.1656],[43.2472,-22.1256],[43.2468,-22.0351],[43.3021,-21.8644],[43.3088,-21.9321],[43.3293,-21.905],[43.3473,-21.7503],[43.4315,-21.6623],[43.4727,-21.6721],[43.4727,-21.4052],[43.5075,-21.3095],[43.5233,-21.3268],[43.5869,-21.2748],[43.7346,-21.2817],[43.8128,-21.2243],[43.9015,-20.8829],[43.9646,-20.7673],[44.0364,-20.7255],[44.1258,-20.4983],[44.2547,-20.3761],[44.3342,-20.1696],[44.4578,-20.0236]]],[[[50.0241,-16.6904],[49.9085,-16.967],[49.8262,-17.0944],[49.8573,-16.9197],[49.9732,-16.7211],[50.0241,-16.6904]]],[[[39.9033,-16.4098],[39.8325,-16.3905],[39.8213,-16.3174],[39.9436,-16.2793],[39.9033,-16.4098]]],[[[48.3662,-13.4006],[48.2246,-13.4005],[48.1997,-13.3615],[48.1887,-13.2643],[48.2769,-13.2643],[48.2804,-13.1964],[48.3264,-13.2128],[48.315,-13.2468],[48.3542,-13.3123],[48.332,-13.3604],[48.3662,-13.4006]]],[[[43.8616,-12.3634],[43.6652,-12.3525],[43.6358,-12.2369],[43.7272,-12.2636],[43.8616,-12.3634]]],[[[44.523,-12.3728],[44.3853,-12.2517],[44.2064,-12.1606],[44.3735,-12.1804],[44.4118,-12.0855],[44.4671,-12.0644],[44.5291,-12.2328],[44.523,-12.3728]]],[[[43.4826,-11.9172],[43.4377,-11.9316],[43.37,-11.8606],[43.2903,-11.8434],[43.2178,-11.7503],[43.2765,-11.3796],[43.3557,-11.3613],[43.3949,-11.4002],[43.3771,-11.6051],[43.4988,-11.8736],[43.4826,-11.9172]]],[[[39.7028,-8.0914],[39.742,-7.9948],[39.7967,-7.9925],[39.7492,-8.0655],[39.7028,-8.0914]]],[[[39.9094,-7.6867],[39.8233,-7.914],[39.7546,-7.9153],[39.6868,-7.9889],[39.5872,-7.9455],[39.693,-7.8703],[39.7039,-7.8194],[39.8143,-7.7885],[39.7734,-7.7755],[39.8449,-7.7377],[39.8957,-7.6376],[39.9094,-7.6867]]],[[[39.4572,-6.4391],[39.4165,-6.3014],[39.3941,-6.3082],[39.4036,-6.3737],[39.3005,-6.2394],[39.2732,-6.3082],[39.177,-6.1579],[39.2129,-6.1142],[39.1932,-5.9041],[39.2111,-5.9177],[39.28,-5.842],[39.3135,-5.7184],[39.3557,-5.8038],[39.3726,-5.9708],[39.4302,-6.0549],[39.4165,-6.1921],[39.501,-6.1962],[39.4985,-6.1238],[39.5741,-6.3776],[39.5443,-6.4509],[39.4572,-6.4391]]],[[[39.2385,-5.813],[39.2124,-5.8437],[39.2261,-5.7692],[39.2385,-5.813]]],[[[39.6621,-5.4637],[39.6153,-5.4638],[39.5755,-5.3945],[39.6212,-5.4411],[39.6621,-5.4637]]],[[[39.6902,-5.3282],[39.6636,-5.2872],[39.7263,-5.2804],[39.6908,-5.2599],[39.7642,-5.2624],[39.7809,-5.2394],[39.7363,-5.24],[39.6499,-5.1909],[39.7461,-5.2052],[39.7425,-5.1618],[39.6908,-5.1375],[39.7007,-5.0792],[39.7254,-5.0805],[39.6773,-5.0444],[39.6812,-4.9872],[39.716,-4.9768],[39.6773,-4.9451],[39.6841,-4.8903],[39.8215,-4.9938],[39.856,-4.8972],[39.8782,-4.9877],[39.8356,-5.0265],[39.8281,-5.1021],[39.8386,-5.1375],[39.8612,-5.1145],[39.856,-5.253],[39.7961,-5.4068],[39.7809,-5.3832],[39.7386,-5.4516],[39.6431,-5.414],[39.6506,-5.3385],[39.6902,-5.3282]]],[[[41.1369,-2.1155],[41.1234,-2.0937],[41.1048,-2.134],[40.9956,-2.1438],[41.0061,-2.1974],[40.9573,-2.174],[40.9829,-2.0973],[41.0657,-2.0363],[41.1433,-2.0595],[41.1628,-2.0909],[41.1369,-2.1155]]],[[[40.4081,15.58],[40.1228,15.614],[40.0853,15.5876],[39.9789,15.6065],[39.9373,15.7021],[39.9714,15.6611],[40.0813,15.6611],[40.0088,15.7366],[39.9304,15.7396],[39.9338,15.7882],[39.99,15.7699],[39.9753,15.8153],[40.0374,15.8384],[39.951005831325304,15.893891903614458],[40.0916,15.8498],[40.0957,15.7846],[40.1365,15.8062],[40.1638,15.6444],[40.2321,15.627],[40.2616,15.6632],[40.2191,15.6854],[40.2669,15.7035],[40.4063,15.6381],[40.4081,15.58]]],[[[39.9509,15.8939],[39.951,15.8939],[39.951005831325304,15.893891903614458],[39.9509,15.8939]]],[[[40.1145,15.9859],[39.9902,16.0342],[40.0472,16.0635],[40.0505,16.1072],[40.1188,16.062],[40.0774,16.019],[40.1145,15.9859]]],[[[37.2645,20.75],[37.2508,20.8347],[37.2653,20.855],[37.2645,20.75]]]]}}]}
